HELIOS 2A               
1 28492U 04049A   24182.24376414  .00003924  00000+0  33958-3 0  9998
2 28492  98.3193 176.5683 0013476 151.9229 208.2720 14.97742090 46257
SPIRALE A               
1 33751U 09008C   24182.04991784  .00001561  00000+0  16324-2 0  9995
2 33751   2.0334 262.7284 5544941 230.2042  66.4190  4.59706585228905
SPIRALE B               
1 33752U 09008D   24181.87005427  .00008827  00000+0  16558-2 0  9997
2 33752   2.0445  63.1952 6783286 251.3188  27.8695  2.93504286146525
SAPPHIRE                
1 39088U 13009C   24181.76519959  .00000387  00000+0  15156-3 0  9996
2 39088  98.4109   8.2249 0010504 220.7763 139.2637 14.34714123593685
